start=new Date('2023-03-16T00:00:00.000Z').valueOf();
sats=[{"TIME_SYSTEM":"UTC","ECCENTRICITY":"0.00010070","REV_AT_EPOCH":"10384","CLASSIFICATION_TYPE":"U","ELEMENT_SET_NO":"999","MEAN_MOTION_DOT":"0.00009644","SEMIMAJOR_AXIS":"6925.394","ARG_OF_PERICENTER":"75.3835","INCLINATION":"53.0525","NORAD_CAT_ID":"48280","FILE":"3861599","GP_ID":"228207037","DECAY_DATE":null,"RA_OF_ASC_NODE":"308.9465","PERIOD":"95.593","OBJECT_NAME":"STARLINK-2565","LAUNCH_DATE":"2021-04-29","APOAPSIS":"547.957","TLE_LINE2":"2 48280  53.0525 308.9465 0001007  75.3835 284.7266 15.06385089103844","BSTAR":"0.00066570000000","MEAN_ANOMALY":"284.7266","MEAN_MOTION_DDOT":"0.0000000000000","COUNTRY_CODE":"US","REF_FRAME":"TEME","MEAN_MOTION":"15.06385089","OBJECT_ID":"2021-036E","EPOCH":"2023-03-15T21:13:17.370048","TLE_LINE1":"1 48280U 21036E   23074.88422882  .00009644  00000-0  66570-3 0  9992","EPHEMERIS_TYPE":"0","SITE":"AFETR","PERIAPSIS":"546.562","CENTER_NAME":"EARTH","RCS_SIZE":"LARGE","OBJECT_TYPE":"PAYLOAD","MEAN_ELEMENT_THEORY":"SGP4"},{"EPHEMERIS_TYPE":"0","PERIAPSIS":"546.520","SITE":"AFETR","RCS_SIZE":"LARGE","CENTER_NAME":"EARTH","OBJECT_TYPE":"PAYLOAD","MEAN_ELEMENT_THEORY":"SGP4","TLE_LINE1":"1 48281U 21036F   23074.89713215  .00019547  00000-0  13277-2 0  9995","REF_FRAME":"TEME","COUNTRY_CODE":"US","MEAN_MOTION":"15.06394086","OBJECT_ID":"2021-036F","EPOCH":"2023-03-15T21:31:52.217760","OBJECT_NAME":"STARLINK-2520","LAUNCH_DATE":"2021-04-29","APOAPSIS":"547.943","TLE_LINE2":"2 48281  53.0522 288.8896 0001027  95.8859 264.2247 15.06394086104122","BSTAR":"0.00132770000000","MEAN_ANOMALY":"264.2247","MEAN_MOTION_DDOT":"0.0000000000000","DECAY_DATE":null,"RA_OF_ASC_NODE":"288.8896","PERIOD":"95.593","INCLINATION":"53.0522","NORAD_CAT_ID":"48281","FILE":"3861599","GP_ID":"228206788","ELEMENT_SET_NO":"999","MEAN_MOTION_DOT":"0.00019547","ARG_OF_PERICENTER":"95.8859","SEMIMAJOR_AXIS":"6925.367","TIME_SYSTEM":"UTC","ECCENTRICITY":"0.00010270","REV_AT_EPOCH":"10412","CLASSIFICATION_TYPE":"U"},{"EPHEMERIS_TYPE":"0","PERIAPSIS":"546.874","SITE":"AFETR","CENTER_NAME":"EARTH","RCS_SIZE":"LARGE","MEAN_ELEMENT_THEORY":"SGP4","OBJECT_TYPE":"PAYLOAD","TLE_LINE1":"1 48282U 21036G   23074.92058409  .00013977  00000-0  95615-3 0  9995","REF_FRAME":"TEME","COUNTRY_CODE":"US","OBJECT_ID":"2021-036G","MEAN_MOTION":"15.06369713","EPOCH":"2023-03-15T22:05:38.465376","LAUNCH_DATE":"2021-04-29","OBJECT_NAME":"STARLINK-2558","APOAPSIS":"547.739","TLE_LINE2":"2 48282  53.0522 293.7818 0000625  89.1024 271.0036 15.06369713104069","BSTAR":"0.00095615000000","MEAN_ANOMALY":"271.0036","MEAN_MOTION_DDOT":"0.0000000000000","DECAY_DATE":null,"RA_OF_ASC_NODE":"293.7818","PERIOD":"95.594","INCLINATION":"53.0522","FILE":"3861599","NORAD_CAT_ID":"48282","GP_ID":"228205536","ELEMENT_SET_NO":"999","MEAN_MOTION_DOT":"0.00013977","SEMIMAJOR_AXIS":"6925.441","ARG_OF_PERICENTER":"89.1024","TIME_SYSTEM":"UTC","ECCENTRICITY":"0.00006250","REV_AT_EPOCH":"10406","CLASSIFICATION_TYPE":"U"},{"MEAN_MOTION_DOT":"0.00015843","ELEMENT_SET_NO":"999","SEMIMAJOR_AXIS":"6925.382","ARG_OF_PERICENTER":"152.6614","ECCENTRICITY":"0.00010080","TIME_SYSTEM":"UTC","CLASSIFICATION_TYPE":"U","REV_AT_EPOCH":"10406","DECAY_DATE":null,"PERIOD":"95.593","RA_OF_ASC_NODE":"293.7981","NORAD_CAT_ID":"48283","FILE":"3861599","INCLINATION":"53.0524","GP_ID":"228206286","MEAN_MOTION":"15.06389176","OBJECT_ID":"2021-036H","REF_FRAME":"TEME","COUNTRY_CODE":"US","EPOCH":"2023-03-15T22:00:22.872096","TLE_LINE2":"2 48283  53.0524 293.7981 0001008 152.6614 207.4428 15.06389176104063","APOAPSIS":"547.945","OBJECT_NAME":"STARLINK-2516","LAUNCH_DATE":"2021-04-29","MEAN_MOTION_DDOT":"0.0000000000000","MEAN_ANOMALY":"207.4428","BSTAR":"0.00108040000000","SITE":"AFETR","PERIAPSIS":"546.549","EPHEMERIS_TYPE":"0","MEAN_ELEMENT_THEORY":"SGP4","OBJECT_TYPE":"PAYLOAD","CENTER_NAME":"EARTH","RCS_SIZE":"LARGE","TLE_LINE1":"1 48283U 21036H   23074.91693139  .00015843  00000-0  10804-2 0  9990"},{"SITE":"AFETR","PERIAPSIS":"546.604","EPHEMERIS_TYPE":"0","OBJECT_TYPE":"PAYLOAD","MEAN_ELEMENT_THEORY":"SGP4","CENTER_NAME":"EARTH","RCS_SIZE":"LARGE","TLE_LINE1":"1 48284U 21036J   23074.91326181  .00019689  00000-0  13370-2 0  9994","MEAN_MOTION":"15.06399187","OBJECT_ID":"2021-036J","REF_FRAME":"TEME","COUNTRY_CODE":"US","EPOCH":"2023-03-15T21:55:05.820384","TLE_LINE2":"2 48284  53.0512 293.8201 0000884 104.9589 255.1497 15.06399187104057","APOAPSIS":"547.828","LAUNCH_DATE":"2021-04-29","OBJECT_NAME":"STARLINK-2564","MEAN_MOTION_DDOT":"0.0000000000000","MEAN_ANOMALY":"255.1497","BSTAR":"0.00133700000000","DECAY_DATE":null,"PERIOD":"95.592","RA_OF_ASC_NODE":"293.8201","FILE":"3861599","NORAD_CAT_ID":"48284","INCLINATION":"53.0512","GP_ID":"228206538","MEAN_MOTION_DOT":"0.00019689","ELEMENT_SET_NO":"999","SEMIMAJOR_AXIS":"6925.351","ARG_OF_PERICENTER":"104.9589","ECCENTRICITY":"0.00008840","TIME_SYSTEM":"UTC","CLASSIFICATION_TYPE":"U","REV_AT_EPOCH":"10405"},{"MEAN_MOTION":"15.06404867","OBJECT_ID":"2021-036K","REF_FRAME":"TEME","COUNTRY_CODE":"US","EPOCH":"2023-03-15T21:48:27.953568","TLE_LINE2":"2 48285  53.0524 293.8297 0001187 113.6301 246.4812 15.06404867104058","APOAPSIS":"548.021","OBJECT_NAME":"STARLINK-2548","LAUNCH_DATE":"2021-04-29","MEAN_MOTION_DDOT":"0.0000000000000","MEAN_ANOMALY":"246.4812","BSTAR":"0.00068409000000","SITE":"AFETR","PERIAPSIS":"546.377","EPHEMERIS_TYPE":"0","OBJECT_TYPE":"PAYLOAD","MEAN_ELEMENT_THEORY":"SGP4","RCS_SIZE":"LARGE","CENTER_NAME":"EARTH","TLE_LINE1":"1 48285U 21036K   23074.90865687  .00009924  00000-0  68409-3 0  9998","MEAN_MOTION_DOT":"0.00009924","ELEMENT_SET_NO":"999","ARG_OF_PERICENTER":"113.6301","SEMIMAJOR_AXIS":"6925.334","ECCENTRICITY":"0.00011870","TIME_SYSTEM":"UTC","CLASSIFICATION_TYPE":"U","REV_AT_EPOCH":"10405","DECAY_DATE":null,"PERIOD":"95.592","RA_OF_ASC_NODE":"293.8297","FILE":"3861599","NORAD_CAT_ID":"48285","INCLINATION":"53.0524","GP_ID":"228207288"},{"COUNTRY_CODE":"US","REF_FRAME":"TEME","MEAN_MOTION":"15.06417203","OBJECT_ID":"2021-036L","EPOCH":"2023-03-15T21:44:28.196160","APOAPSIS":"548.724","LAUNCH_DATE":"2021-04-29","OBJECT_NAME":"STARLINK-2547","TLE_LINE2":"2 48286  53.0533 293.8475 0002257  94.6759 265.4487 15.06417203104058","MEAN_ANOMALY":"265.4487","BSTAR":"0.00232150000000","MEAN_MOTION_DDOT":"0.0000000000000","SITE":"AFETR","PERIAPSIS":"545.598","EPHEMERIS_TYPE":"0","CENTER_NAME":"EARTH","RCS_SIZE":"LARGE","OBJECT_TYPE":"PAYLOAD","MEAN_ELEMENT_THEORY":"SGP4","TLE_LINE1":"1 48286U 21036L   23074.90588190  .00034484  00000-0  23215-2 0  9994","ELEMENT_SET_NO":"999","MEAN_MOTION_DOT":"0.00034484","SEMIMAJOR_AXIS":"6925.296","ARG_OF_PERICENTER":"94.6759","ECCENTRICITY":"0.00022570","TIME_SYSTEM":"UTC","REV_AT_EPOCH":"10405","CLASSIFICATION_TYPE":"U","DECAY_DATE":null,"RA_OF_ASC_NODE":"293.8475","PERIOD":"95.591","NORAD_CAT_ID":"48286","FILE":"3861599","INCLINATION":"53.0533","GP_ID":"228206036"},{"REV_AT_EPOCH":"10405","CLASSIFICATION_TYPE":"U","TIME_SYSTEM":"UTC","ECCENTRICITY":"0.00011650","ARG_OF_PERICENTER":"73.3944","SEMIMAJOR_AXIS":"6925.304","ELEMENT_SET_NO":"999","MEAN_MOTION_DOT":"0.00011009","GP_ID":"228205787","INCLINATION":"53.0534","NORAD_CAT_ID":"48287","FILE":"3861599","RA_OF_ASC_NODE":"293.8680","PERIOD":"95.591","DECAY_DATE":null,"BSTAR":"0.00075648000000","MEAN_ANOMALY":"286.7172","MEAN_MOTION_DDOT":"0.0000000000000","OBJECT_NAME":"STARLINK-2566","LAUNCH_DATE":"2021-04-29","APOAPSIS":"547.976","TLE_LINE2":"2 48287  53.0534 293.8680 0001165  73.3944 286.7172 15.06414471104056","EPOCH":"2023-03-15T21:39:10.346112","REF_FRAME":"TEME","COUNTRY_CODE":"US","OBJECT_ID":"2021-036M","MEAN_MOTION":"15.06414471","TLE_LINE1":"1 48287U 21036M   23074.90220308  .00011009  00000-0  75648-3 0  9995","RCS_SIZE":"LARGE","CENTER_NAME":"EARTH","OBJECT_TYPE":"PAYLOAD","MEAN_ELEMENT_THEORY":"SGP4","EPHEMERIS_TYPE":"0","PERIAPSIS":"546.362","SITE":"AFETR"},{"TLE_LINE1":"1 48288U 21036N   23074.89756886  .00028960  00000-0  19544-2 0  9995","SITE":"AFETR","PERIAPSIS":"545.777","EPHEMERIS_TYPE":"0","OBJECT_TYPE":"PAYLOAD","MEAN_ELEMENT_THEORY":"SGP4","RCS_SIZE":"LARGE","CENTER_NAME":"EARTH","TLE_LINE2":"2 48288  53.0524 293.8805 0002014  91.7301 268.3919 15.06413541104052","APOAPSIS":"548.567","OBJECT_NAME":"STARLINK-2562","LAUNCH_DATE":"2021-04-29","MEAN_MOTION_DDOT":"0.0000000000000","MEAN_ANOMALY":"268.3919","BSTAR":"0.00195440000000","OBJECT_ID":"2021-036N","MEAN_MOTION":"15.06413541","REF_FRAME":"TEME","COUNTRY_CODE":"US","EPOCH":"2023-03-15T21:32:29.949504","FILE":"3861599","NORAD_CAT_ID":"48288","INCLINATION":"53.0524","GP_ID":"228207038","DECAY_DATE":null,"PERIOD":"95.591","RA_OF_ASC_NODE":"293.8805","ECCENTRICITY":"0.00020140","TIME_SYSTEM":"UTC","CLASSIFICATION_TYPE":"U","REV_AT_EPOCH":"10405","MEAN_MOTION_DOT":"0.00028960","ELEMENT_SET_NO":"999","ARG_OF_PERICENTER":"91.7301","SEMIMAJOR_AXIS":"6925.307"},{"ARG_OF_PERICENTER":"92.6381","SEMIMAJOR_AXIS":"6925.258","ELEMENT_SET_NO":"999","MEAN_MOTION_DOT":"0.00021146","REV_AT_EPOCH":"10405","CLASSIFICATION_TYPE":"U","ECCENTRICITY":"0.00011590","TIME_SYSTEM":"UTC","RA_OF_ASC_NODE":"293.9023","PERIOD":"95.590","DECAY_DATE":null,"GP_ID":"228206789","FILE":"3861599","NORAD_CAT_ID":"48289","INCLINATION":"53.0517","EPOCH":"2023-03-15T21:28:35.798592","REF_FRAME":"TEME","COUNTRY_CODE":"US","OBJECT_ID":"2021-036P","MEAN_MOTION":"15.06429631","MEAN_ANOMALY":"267.4741","BSTAR":"0.00143310000000","MEAN_MOTION_DDOT":"0.0000000000000","APOAPSIS":"547.925","LAUNCH_DATE":"2021-04-29","OBJECT_NAME":"STARLINK-2545","TLE_LINE2":"2 48289  53.0517 293.9023 0001159  92.6381 267.4741 15.06429631104055","RCS_SIZE":"LARGE","CENTER_NAME":"EARTH","MEAN_ELEMENT_THEORY":"SGP4","OBJECT_TYPE":"PAYLOAD","PERIAPSIS":"546.320","SITE":"AFETR","EPHEMERIS_TYPE":"0","TLE_LINE1":"1 48289U 21036P   23074.89485878  .00021146  00000-0  14331-2 0  9994"}];
